[{"OBJECT_NAME":"STARLINK-35409","OBJECT_ID":"2025-243V","EPOCH":"2026-03-09T18:03:23.878080","MEAN_MOTION":15.30196191,"ECCENTRICITY":9.943e-5,"INCLINATION":53.1592,"RA_OF_ASC_NODE":244.9387,"ARG_OF_PERICENTER":134.1816,"MEAN_ANOMALY":225.9266,"EPHEMERIS_TYPE":0,"CLASSIFICATION_TYPE":"U","NORAD_CAT_ID":66196,"ELEMENT_SET_NO":999,"REV_AT_EPOCH":2066,"BSTAR":0.00046771686,"MEAN_MOTION_DOT":0.00013517,"MEAN_MOTION_DDOT":0},{"OBJECT_NAME":"CZ-4C R\/B","OBJECT_ID":"2022-069B","EPOCH":"2026-03-09T22:08:25.149120","MEAN_MOTION":15.31915595,"ECCENTRICITY":0.00471341,"INCLINATION":97.9961,"RA_OF_ASC_NODE":42.6953,"ARG_OF_PERICENTER":87.2467,"MEAN_ANOMALY":273.4166,"EPHEMERIS_TYPE":0,"CLASSIFICATION_TYPE":"U","NORAD_CAT_ID":52913,"ELEMENT_SET_NO":999,"REV_AT_EPOCH":20482,"BSTAR":0.00043675127,"MEAN_MOTION_DOT":0.00013855,"MEAN_MOTION_DDOT":0}]
